[
    {
        "Altitude(m)": 612502.2005374784,
        "Argument of Periapsis(deg)": 0.0,
        "Eccentricity": 0.0,
        "Inclination(deg)": 60.0,
        "Latitude(deg)": -28.13599233004032,
        "Longitude(deg)": 42.148293069275155,
        "Mean Anomaly(deg)": -32.727300000000035,
        "RAAN(deg)": 160.0,
        "Satellite Name": "Test1 724",
        "Satellite Number": 724,
        "Semi-Major Axis(m)": 6980739.136638005,
        "Time(s)": 0
    },
    {
        "Altitude(m)": 612308.6481984387,
        "Argument of Periapsis(deg)": 0.00010418945913296404,
        "Eccentricity": 0.0,
        "Inclination(deg)": 60.0,
        "Latitude(deg)": -27.623047127525783,
        "Longitude(deg)": 42.50176634302169,
        "Mean Anomaly(deg)": -32.10719385453818,
        "RAAN(deg)": 159.99957995086024,
        "Satellite Name": "Test1 724",
        "Satellite Number": 724,
        "Semi-Major Axis(m)": 6980739.136638005,
        "Time(s)": 10
    }
]